[{"OBJECT_NAME":"STARLINK-32046","OBJECT_ID":"2024-124R","EPOCH":"2026-03-09T22:35:18.930912","MEAN_MOTION":15.30174691,"ECCENTRICITY":0.00011862,"INCLINATION":53.1618,"RA_OF_ASC_NODE":321.3689,"ARG_OF_PERICENTER":85.8581,"MEAN_ANOMALY":274.2555,"EPHEMERIS_TYPE":0,"CLASSIFICATION_TYPE":"U","NORAD_CAT_ID":60198,"ELEMENT_SET_NO":999,"REV_AT_EPOCH":9556,"BSTAR":1.96104e-6,"MEAN_MOTION_DOT":-3.01e-6,"MEAN_MOTION_DDOT":0},{"OBJECT_NAME":"OBJECT BE","OBJECT_ID":"2024-199BE","EPOCH":"2026-03-09T22:35:11.240448","MEAN_MOTION":15.34583634,"ECCENTRICITY":0.00126202,"INCLINATION":97.3163,"RA_OF_ASC_NODE":298.7137,"ARG_OF_PERICENTER":307.7021,"MEAN_ANOMALY":52.3078,"EPHEMERIS_TYPE":0,"CLASSIFICATION_TYPE":"U","NORAD_CAT_ID":61787,"ELEMENT_SET_NO":999,"REV_AT_EPOCH":12186,"BSTAR":0.00035348262,"MEAN_MOTION_DOT":0.00011799,"MEAN_MOTION_DDOT":0}]
